IRIDIUM 116             
1 43072U 17083C   25324.67689917  .00000351  00000+0  11822-3 0  9999
2 43072  86.3985  49.1543 0002160 106.2027 253.9407 14.34214685414287
IRIDIUM 130             
1 43073U 17083D   25324.50564710  .00000353  00000+0  11901-3 0  9995
2 43073  86.3991  49.4807 0001920 104.0044 256.1365 14.34214414414209
IRIDIUM 151             
1 43074U 17083E   25324.68957621  .00000370  00000+0  12510-3 0  9998
2 43074  86.3987  49.2020 0002131  98.9669 261.1768 14.34214820414258
IRIDIUM 134             
1 43075U 17083F   25324.65786730  .00000372  00000+0  12590-3 0  9997
2 43075  86.3988  49.2205 0001929 100.7084 259.4329 14.34216575414210
IRIDIUM 137             
1 43076U 17083G   25324.67055305  .00000342  00000+0  11505-3 0  9999
2 43076  86.3991  49.3037 0002491 105.5017 254.6454 14.34215537414283
IRIDIUM 141             
1 43077U 17083H   25324.66421321  .00000362  00000+0  12233-3 0  9995
2 43077  86.3985  49.1489 0002067  93.2752 266.8681 14.34215888414280
IRIDIUM 153             
1 43078U 17083J   25325.17454127  .00000326  00000+0  10940-3 0  9996
2 43078  86.3994  17.4266 0002047  87.1017 273.0413 14.34215555415461
IRIDIUM 131             
1 43079U 17083K   25324.65152618  .00000359  00000+0  12099-3 0  9992
2 43079  86.3990  49.3262 0002140  93.6395 266.5046 14.34216846414218
